#aP2012  3  6  0  0  0.00000000      96 ORBIT IGS08 HLM  IGS
## 1678 172800.00000000   900.00000000 55992 0.0000000000000
+   32     1  2  3  4  5  6  7  8  9 10 11 12 13 14 15 16 17
+         18 19 20 21 22 23 24 25 26 27 28 29 30 31 32  0  0
+          0  0  0  0  0  0  0  0  0  0  0  0  0  0  0  0  0
+          0  0  0  0  0  0  0  0  0  0  0  0  0  0  0  0  0
+          0  0  0  0  0  0  0  0  0  0  0  0  0  0  0  0  0
++         2  2  2  2  2  2  2  3  3  2  2  2  2  2  2  2  2
++         2  2  2  2  2  2  0  2  2  3  2  2  2  2  2  0  0
++         0  0  0  0  0  0  0  0  0  0  0  0  0  0  0  0  0
++         0  0  0  0  0  0  0  0  0  0  0  0  0  0  0  0  0
++         0  0  0  0  0  0  0  0  0  0  0  0  0  0  0  0  0
%c c  cc ccc ccc cccc cccc cccc cccc ccccc ccccc ccccc ccccc
%c cc cc ccc ccc cccc cccc cccc cccc ccccc ccccc ccccc ccccc
%f  0.0000000  0.000000000  0.00000000000  0.000000000000000
%f  0.0000000  0.000000000  0.00000000000  0.000000000000000
%i    0    0    0    0      0      0      0      0         0
%i    0    0    0    0      0      0      0      0         0
/* FINAL ORBIT COMBINATION FROM WEIGHTED AVERAGE OF:        
/* cod emr esa gfz grg jpl mit ngs sio                      
/* REFERENCED TO IGS TIME (IGST) AND TO WEIGHTED MEAN POLE: 
/* PCV:IGS08_1673 OL/AL:FES2004  NONE     Y  ORB:CMB CLK:CMB
*  2012  3  6 22  0  0.00000000
P  1 -22036.439011 -12190.858228   8459.033281    227.235600
P  2  10166.616544  21431.651277  12551.030808    381.773402
P  3  -5221.273637 -15264.711207 -21547.816175     18.858621
P  4   -946.434221  18136.989805  19025.689267 999999.999999
P  5   3506.528844  23366.433288 -12029.624920   -290.789132
P  6     15.902208 -16293.342579 -20800.692786     31.724606
P  7 -18852.476371   -416.082189 -18781.952507     62.369583
P  8 -10475.719880   9830.020287 -22268.208503      0.743114
P  9  21094.703270  15433.141330   4070.084190    143.050653
P 10  -9565.697283  24024.988620   4801.372228    -31.364433
P 11 -23338.342252 -13025.209242  -1003.116028   -239.100043
P 12  12475.954209   9559.810720  21444.350565     56.380033
P 13 -26056.223961   5375.700405    230.450234    220.993511
P 14  15354.808144 -14721.086559  15989.044252    196.222695
P 15  19936.502577   6003.173024 -16618.717102    -92.256073
P 16  -1865.856801 -23528.723126 -11844.380382   -226.320579
P 17 -17494.012046  14577.389987  13638.726292    144.384541
P 18  15929.260475 -11963.397452 -17043.979545    184.917476
P 19 -17245.207020  -9290.798581 -18146.428955   -242.887283
P 20 -15046.896510  -5160.726861  21112.002572     63.294351
P 21  17002.223835  -4082.018328 -19674.389246   -208.929889
P 22  10271.205287 -23668.739708  -5865.371845    143.023637
P 23 -24408.407691   -765.885311  10906.526648    226.655177
P 24   7501.872554 -25264.421207   2344.090915 999999.999999
P 25  15743.087017  -5345.359362  20677.538214     32.065020
P 26   6543.595526  13797.157228 -22381.097290   -115.749250
P 27  19537.890755  18218.284798  -1677.367457    364.052223
P 28 -11778.604275  22057.079976  -8055.685595    119.865076
P 29  25961.182311  -4712.292169   2900.722173    291.253414
P 30   1845.472086 -26437.960849  -2021.183572    -72.318163
P 31    159.997193 -18027.116420  19616.685810    216.438030
P 32 -10185.853815 -14748.974414  19962.698631   -416.879396
*  2012  3  6 22 15  0.00000000
P  1 -22497.778203 -12904.373691   5761.969598    227.242718
P  2   8858.018329  20609.574876  14703.954433    381.774517
P  3  -3085.724510 -16277.088099 -21182.708166     18.863651
P  4  -2779.651791  16734.600491  20116.216427 999999.999999
P  5   3024.880146  24534.549621  -9567.889155   -290.792931
P  6   2253.089948 -17096.384061 -19998.732486     31.724873
P  7 -20306.087736  -1861.323100 -17128.663804     62.372398
P  8 -12240.560282   7996.810879 -22151.423297      0.744834
P  9  21246.606219  15813.138610   1185.833853 999999.999999
P 10  -9720.319445  23230.847426   7529.870557    -31.365197
P 11 -22947.235001 -13310.434935  -3672.779613   -239.103407
P 12  11916.206418  11890.019725  20596.479767     56.381934
P 13 -25897.347336   5156.363239   3123.469055    220.991598
P 14  17016.509909 -15019.781083  13851.989493    196.223894
P 15  18124.306143   6844.666878 -18267.799461    -92.255696
P 16  -1392.078440 -24669.127757  -9293.553605   -226.321822
P 17 -18905.155763  14783.411015  11281.959624    144.382468
P 18  15708.612466  -9843.966295 -18543.052233    184.919330
P 19 -15196.186396  -9914.154851 -19560.819295   -242.890794
P 20 -14636.915322  -7561.795922  20682.002814     63.294832
P 21  18624.759771  -2490.483941 -18516.914891   -208.932490
P 22  10430.730950 -22768.233749  -8494.421307    143.023369
P 23 -23168.852720  -1372.506873  13265.745495    226.652209
P 24   7644.135838 -24781.122697   5189.156004 999999.999999
P 25  15372.672948  -2960.055034  21425.528795     32.065275
P 26   4187.493667  14387.423071 -22545.123750   -115.801697
P 27  19108.902442  18082.982486  -4519.674058    364.057736
P 28 -11716.002793  20890.667979 -10675.899500    119.868565
P 29  25566.142344  -4337.717854   5707.261450    291.256677
P 30   2109.511940 -26444.322505    829.822877    -72.331619
P 31   1911.393211 -16573.009112  20804.258027    216.442408
P 32  -9493.712069 -16794.799126  18671.509334   -416.884013
*  2012  3  6 22 30  0.00000000
P  1 -22748.330314 -13404.445895   2965.821444    227.249841
P  2   7326.708667  19717.978862  16611.141668    381.775882
P  3  -1050.193815 -17363.421704 -20466.399477     18.867844
P  4  -4758.226415  15358.269359  20850.832777 999999.999999
P  5   2640.087540  25439.851809  -6940.502310   -290.796966
P  6   4351.037143 -17958.193825 -18846.633146     31.725202
P  7 -21676.178130  -3097.185963 -15182.933947     62.375094
P  8 -14079.003640   6296.737287 -21652.695994      0.744613
P  9  21157.897530  15983.047394  -1718.994113    143.058326
P 10  -9867.587021  22143.455666  10124.642306    -31.364723
P 11 -22300.120343 -13497.422433  -6280.805085   -239.106657
P 12  11503.815403  14131.368930  19395.800839     56.383679
P 13 -25440.938869   4830.216043   5962.889962    220.989454
P 14  18419.386998 -15326.577204  11477.361741    196.224986
P 15  16201.193391   7844.065988 -19604.909259    -92.255301
P 16  -1031.890676 -25537.522731  -6579.832674   -226.323434
P 17 -20044.861315  14964.750404   8730.132059    144.380459
P 18  15563.245922  -7566.555753 -19710.509820    184.920645
P 19 -13046.073302 -10687.617454 -20643.120315   -242.894162
P 20 -14346.442449  -9909.412964  19891.334625     63.295383
P 21  20197.583256  -1075.830244 -17034.255890   -208.934442
P 22  10589.707634 -21589.142461 -10975.350844    143.023066
P 23 -21727.623001  -2138.020729  15401.040639    226.649034
P 24   7769.652892 -23989.516031   7943.753134 999999.999999
P 25  15121.573838   -495.494692  21803.831303     32.065552
P 26   1867.757014  15112.758087 -22342.700740   -115.854125
P 27  18409.810510  17792.624981  -7285.282948    364.064001
P 28 -11666.513732  19432.787669 -13105.183012    119.872134
P 29  24897.647220  -3837.079621   8415.488892    291.259814
P 30   2365.625596 -26141.952529   3666.480497    -72.345149
P 31   3827.650027 -15149.129763  21638.133950    216.446305
P 32  -8944.649304 -18714.297558  17069.210293   -416.888561
*  2012  3  6 22 45  0.00000000
P  1 -22758.397818 -13714.314716    118.679801    227.256981
P  2   5584.886766  18795.733204  18240.142212    381.777021
P  3    852.573953 -18494.024498 -19409.562386     18.872127
P  4  -6849.991485  14043.944580  21217.214420 999999.999999
P  5   2321.089009  26059.546173  -4192.870572   -290.801008
P  6   6276.284644 -18846.395850 -17364.068815     31.725813
P  7 -22918.171839  -4121.853101 -12978.395600     62.377631
P  8 -15948.933533   4759.255898 -20782.384026      0.744507
P  9  20806.738600  15975.583736  -4594.329145    143.061956
P 10 -10042.808816  20778.282366  12539.369284    -31.366179
P 11 -21395.621400 -13618.373462  -8783.771538   -239.109882
P 12  11229.558177  16236.619426  17863.323080     56.385766
P 13 -24708.312611   4363.594953   8699.813084    220.987354
P 14  19546.164899 -15601.731394   8905.415020    196.226019
P 15  14212.045066   9000.018840 -20606.735056    -92.255351
P 16   -752.674263 -26109.267542  -3750.692636   -226.324753
P 17 -20903.178102  15081.998895   6026.951243    144.378457
P 18  15513.411417  -5173.507491 -20525.840318    184.922563
P 19 -10841.302851 -11611.118256 -21374.027622   -242.897724
P 20 -14169.520234 -12157.559484  18754.160200     63.296402
P 21  21678.420587    152.336440 -15254.541547   -208.936644
P 22  10781.287132 -20148.565844 -13264.642465    143.023307
P 23 -20124.090041  -3076.642757  17275.940262    226.646001
P 24   7916.484872 -22899.877135  10559.722167 999999.999999
P 25  15000.390123   1999.963651  21806.065978     32.065828
P 26   -371.324558  15955.909984 -21775.830245   -115.906526
P 27  17428.922363  17384.619602  -9926.262118    364.069593
P 28 -11666.677278  17705.754812 -15299.004867    119.875960
P 29  23983.129204  -3182.777795  10978.881933    291.263034
P 30   2650.678439 -25534.235185   6439.592828    -72.358684
P 31   5878.061255 -13793.909763  22105.084002    216.450279
P 32  -8526.379505 -20466.188241  15182.942767   -416.893068
EOF
